CS2                     
1 49262U 21088C   26068.73485932  .00018033  00000+0  56178-3 0  9999
2 49262  97.3928 134.2907 0011637  82.3491 277.9072 15.33255930245263
STARLINK-32276          
1 60944U 24155W   26068.46501656 -.00000623  00000+0 -89223-5 0  9996
2 60944  53.1601 130.9073 0001264  79.1509 280.9634 15.30180708 86355
