[{"OBJECT_NAME":"CS2","OBJECT_ID":"2021-088C","EPOCH":"2026-03-09T17:38:11.846112","MEAN_MOTION":15.3325593,"ECCENTRICITY":0.00116375,"INCLINATION":97.3928,"RA_OF_ASC_NODE":134.2907,"ARG_OF_PERICENTER":82.3491,"MEAN_ANOMALY":277.9072,"EPHEMERIS_TYPE":0,"CLASSIFICATION_TYPE":"U","NORAD_CAT_ID":49262,"ELEMENT_SET_NO":999,"REV_AT_EPOCH":24526,"BSTAR":0.0005617759,"MEAN_MOTION_DOT":0.00018033,"MEAN_MOTION_DDOT":0},{"OBJECT_NAME":"STARLINK-32276","OBJECT_ID":"2024-155W","EPOCH":"2026-03-09T11:09:37.430784","MEAN_MOTION":15.30180708,"ECCENTRICITY":0.00012642,"INCLINATION":53.1601,"RA_OF_ASC_NODE":130.9073,"ARG_OF_PERICENTER":79.1509,"MEAN_ANOMALY":280.9634,"EPHEMERIS_TYPE":0,"CLASSIFICATION_TYPE":"U","NORAD_CAT_ID":60944,"ELEMENT_SET_NO":999,"REV_AT_EPOCH":8635,"BSTAR":-8.922271e-6,"MEAN_MOTION_DOT":-6.23e-6,"MEAN_MOTION_DDOT":0}]
